STARLINK-1470           
1 45772U 20038AU  26068.60892913  .00054678  00000+0  19687-2 0  9990
2 45772  53.0480 174.6971 0002444  12.8687 347.2373 15.28074860317065
STARLINK-31995          
1 59958U 24107P   26068.27465130  .00000834  00000+0  40267-4 0  9997
2 59958  53.1589  67.4043 0001148  72.8895 287.2232 15.30196126 98531
